0 COSMOS 1741 DEB *
1 18526U 86030F   13281.87714388  .00000800  00000-0  20984-3 0  4180
2 18526 074.0408 336.2423 0005048 325.4265 148.9159 14.50832606385349
0 COSMOS 1741 DEB *
1 18526U 86030F   13284.13695693  .00000993  00000-0  25879-3 0  4191
2 18526 074.0405 331.9942 0005142 321.3281 071.2199 14.50839694385674
0 COSMOS 1741 DEB *
1 18526U 86030F   13286.21076567  .00000919  00000-0  24010-3 0  4201
2 18526 074.0400 328.0957 0005228 317.6909 101.9979 14.50843109385978
0 COSMOS 1741 DEB *
1 18526U 86030F   13288.49954138  .00001488  00000-0  38430-3 0  4216
2 18526 074.0396 323.7928 0005312 313.6920 175.4931 14.50850093386307
0 COSMOS 1741 DEB *
1 18526U 86030F   13290.50550399  .00001217  00000-0  31550-3 0  4229
2 18526 074.0394 320.0214 0005365 310.3122 211.8735 14.50855847386599
0 COSMOS 1741 DEB *
1 18526U 86030F   13293.17636154  .00001391  00000-0  35952-3 0  4233
2 18526 074.0394 314.9995 0005392 305.5891 121.0335 14.50861215386983
0 COSMOS 1741 DEB *
1 18526U 86030F   13295.18591681  .00001540  00000-0  39721-3 0  4246
2 18526 074.0396 311.2215 0005475 302.5939 175.8737 14.50866962387272
